      2.10          N: GNSS NAV DATA                        RINEX VERSION / TYPE
fic2rin                                 08/01/2024 00:59:02 PGM / RUN BY / DATE
                                                            END OF HEADER
7  24  7 31  1 59 44.0 -.599091872573D-04  .670752342558D-11  .000000000000D+00
     .110000000000D+02 -.468750000000D+00  .517128683343D-08  .192171494067D+01
    -.299885869026D-06  .186942064902D-01  .663660466671D-05  .515361400604D+04
     .266384000000D+06 -.266358256340D-06 -.224772950426D+01 -.400468707085D-06
     .950175212532D+00  .250406250000D+03 -.210700345740D+01 -.805712132573D-08
     .317870383435D-10  .100000000000D+01  .232500000000D+04  .000000000000D+00
     .240000000000D+01  .000000000000D+00 -.111758708954D-07  .110000000000D+02
     .259200000000D+06  .400000000000D+01
19 24  7 31  4  0  0.0  .517968088388D-03  .522959453519D-11  .000000000000D+00
     .101000000000D+03  .107937500000D+03  .426017745349D-08  .144288142807D+01
     .566989183426D-05  .100031357724D-01  .523962080479D-05  .515372641945D+04
     .273600000000D+06  .191852450371D-06 -.488024833793D-01  .149011611938D-06
     .967484310028D+00  .277468750000D+03  .260914297687D+01 -.791890128260D-08
    -.196436753808D-09  .100000000000D+01  .232500000000D+04  .000000000000D+00
     .240000000000D+01  .000000000000D+00 -.153668224812D-07  .101000000000D+03
     .266400000000D+06  .400000000000D+01
14 24  7 31  4  0  0.0  .461322721094D-03  .886757334229D-11  .000000000000D+00
     .239000000000D+03  .337812500000D+02  .492984820511D-08  .216394924647D+01
     .181049108505D-05  .476573139895D-02  .882707536221D-05  .515370011520D+04
     .273600000000D+06 -.106170773506D-06 -.117707746100D+01  .838190317154D-07
     .945007085761D+00  .203718750000D+03 -.286771136575D+01 -.803319175754D-08
    -.475376944215D-09  .100000000000D+01  .232500000000D+04  .000000000000D+00
     .240000000000D+01  .000000000000D+00 -.791624188423D-08  .239000000000D+03
     .266400000000D+06  .400000000000D+01
18 24  7 31  4  0  0.0 -.641870778054D-03 -.352429196937D-11  .000000000000D+00
     .500000000000D+02  .378125000000D+01  .419338895720D-08 -.242023747857D+01
     .175088644028D-06  .444084918126D-02  .121816992760D-05  .515360441971D+04
     .273600000000D+06 -.502914190292D-07  .911973156440D+00  .242143869400D-07
     .974470386077D+00  .364812500000D+03 -.303455643391D+01 -.817569769348D-08
     .321441960776D-10  .100000000000D+01  .232500000000D+04  .000000000000D+00
     .240000000000D+01  .000000000000D+00 -.838190317154D-08  .562000000000D+03
     .266400000000D+06  .400000000000D+01
28 24  7 31  4  0  0.0 -.353329814970D-03 -.153477230924D-10  .000000000000D+00
     .106000000000D+03  .506250000000D+01  .496413534759D-08  .179593168621D+01
     .348314642906D-06  .303573906422D-03  .650808215141D-05  .515368031502D+04
     .273600000000D+06 -.149011611938D-07 -.228012705251D+01 -.391155481339D-07
     .961287792809D+00  .255968750000D+03  .147231002943D+01 -.797390357366D-08
     .168578450541D-09  .100000000000D+01  .232500000000D+04  .000000000000D+00
     .240000000000D+01  .000000000000D+00 -.931322574615D-08  .618000000000D+03
     .266400000000D+06  .400000000000D+01
23 24  7 31  4  0  0.0  .286266673356D-03  .875388650456D-11  .000000000000D+00
     .680000000000D+02 -.129187500000D+03  .375479925960D-08  .265816243879D+01
    -.650249421597D-05  .445603893604D-02  .585243105888D-05  .515360592651D+04
     .273600000000D+06 -.763684511185D-07  .191348936339D+01 -.149011611938D-07
     .980009501558D+00  .275062500000D+03 -.296649070609D+01 -.776746640330D-08
     .367872466222D-10  .100000000000D+01  .232500000000D+04  .000000000000D+00
     .240000000000D+01  .000000000000D+00 -.838190317154D-08  .836000000000D+03
     .266400000000D+06  .400000000000D+01
3  24  7 31  3 59 44.0  .480678863823D-03  .156887836056D-10  .000000000000D+00
     .250000000000D+02 -.109218750000D+03  .360014996070D-08  .244589782240D+01
    -.569783151150D-05  .572381983511D-02  .616163015366D-05  .515369264221D+04
     .273584000000D+06  .726431608200D-07  .194535250913D+01 -.540167093277D-07
     .985237733781D+00  .273281250000D+03  .113524823558D+01 -.764174688086D-08
     .542879755978D-10  .100000000000D+01  .232500000000D+04  .000000000000D+00
     .240000000000D+01  .000000000000D+00  .139698386192D-08  .250000000000D+02
     .270570000000D+06  .400000000000D+01
23 24  7 31  5 29 36.0  .286313239485D-03  .875388650456D-11  .000000000000D+00
     .690000000000D+02 -.132093750000D+03  .375979946788D-08 -.284082554422D+01
    -.666640698910D-05  .445801636670D-02  .669993460178D-05  .515360226440D+04
     .278976000000D+06 -.167638063431D-07  .191344776239D+01 -.931322574615D-08
     .980009919953D+00  .260437500000D+03 -.296652532019D+01 -.771710716277D-08
     .353586156854D-10  .100000000000D+01  .232500000000D+04  .000000000000D+00
     .240000000000D+01  .000000000000D+00 -.838190317154D-08  .837000000000D+03
     .271800000000D+06  .400000000000D+01
3  24  7 31  5 59 44.0  .480792019516D-03  .156887836056D-10  .000000000000D+00
     .460000000000D+02 -.120156250000D+03  .364265173107D-08 -.278710246566D+01
    -.614486634731D-05  .572558213025D-02  .583939254284D-05  .515368935776D+04
     .280784000000D+06 -.298023223877D-07  .194529823780D+01 -.745058059692D-08
     .985238070252D+00  .280250000000D+03  .113522658293D+01 -.757352975363D-08
    -.192865176466D-10  .100000000000D+01  .232500000000D+04  .000000000000D+00
     .240000000000D+01  .000000000000D+00  .139698386192D-08  .460000000000D+02
     .273600000000D+06  .400000000000D+01
2  24  7 31  6  0  0.0 -.388493761420D-03  .750333128963D-11  .000000000000D+00
     .500000000000D+02  .285000000000D+02  .454268922124D-08  .772575627916D+00
     .989064574242D-06  .160424422938D-01  .202655792236D-05  .515369211960D+04
     .280800000000D+06 -.149011611938D-07  .809018141733D+00 -.255182385445D-06
     .967198660644D+00  .347593750000D+03 -.115439378095D+01 -.850356849347D-08
    -.128219626576D-09  .100000000000D+01  .232500000000D+04  .000000000000D+00
     .240000000000D+01  .000000000000D+00 -.176951289177D-07  .500000000000D+02
     .273600000000D+06  .400000000000D+01
1  24  7 31  6  0  0.0  .231812242419D-03 -.784439180279D-11  .000000000000D+00
     .570000000000D+02  .359062500000D+02  .604382317807D-08  .200549749670D+01
     .171363353729D-05  .133420444326D-01  .949576497078D-05  .515359844589D+04
     .280800000000D+06 -.178813934326D-06 -.118472484185D+01 -.355765223503D-06
     .953716568546D+00  .192562500000D+03  .103481624839D+01 -.781961143249D-08
    -.452518849226D-09  .100000000000D+01  .232500000000D+04  .000000000000D+00
     .340000000000D+01  .630000000000D+02 -.195577740669D-07  .570000000000D+02
     .273600000000D+06  .400000000000D+01
7  24  7 31  6  0  0.0 -.598118640482D-04  .670752342558D-11  .000000000000D+00
     .130000000000D+02  .303125000000D+01  .507556856066D-08 -.225872626092D+01
    -.875443220139D-07  .186942105647D-01  .572577118874D-05  .515361402512D+04
     .280800000000D+06  .292435288429D-06 -.224784505577D+01  .558793544769D-08
     .950177475666D+00  .256937500000D+03 -.210697027842D+01 -.793318759196D-08
     .351086052715D-09  .100000000000D+01  .232500000000D+04  .000000000000D+00
     .240000000000D+01  .000000000000D+00 -.111758708954D-07  .130000000000D+02
     .273600000000D+06  .400000000000D+01
5  24  7 31  6  0  0.0 -.181581359357D-03 -.125055521494D-11  .000000000000D+00
     .460000000000D+02 -.111312500000D+03  .406481217289D-08  .921598210893D+00
    -.582076609135D-05  .596059788950D-02  .640377402306D-05  .515365217590D+04
     .280800000000D+06 -.447034835815D-07  .189309406612D+01 -.108033418655D-06
     .972149348048D+00  .266656250000D+03  .129849364606D+01 -.795961726429D-08
    -.142863093678D-09  .100000000000D+01  .232500000000D+04  .000000000000D+00
     .240000000000D+01  .000000000000D+00 -.107102096081D-07  .460000000000D+02
     .273600000000D+06  .400000000000D+01
6  24  7 31  6  0  0.0  .128571875393D-03 -.236468622461D-10  .000000000000D+00
     .490000000000D+02  .943750000000D+01  .391944897507D-08 -.135470381555D+01
     .549480319023D-06  .294475490227D-02  .162236392498D-05  .515366726875D+04
     .280800000000D+06 -.931322574615D-08  .908760692205D+00  .000000000000D+00
     .989621253697D+00  .363843750000D+03 -.724991092595D+00 -.805212111745D-08
    -.400016662300D-10  .100000000000D+01  .232500000000D+04  .000000000000D+00
     .240000000000D+01  .000000000000D+00  .372529029846D-08  .490000000000D+02
     .273600000000D+06  .400000000000D+01
4  24  7 31  6  0  0.0  .414680223912D-03  .761701812735D-11  .000000000000D+00
     .173000000000D+03 -.380625000000D+02  .418303138290D-08  .255557862931D+00
    -.189989805222D-05  .291285186540D-02  .935234129429D-05  .515372280502D+04
     .280800000000D+06  .987201929092D-07  .302321082103D+01  .111758708954D-07
     .965794607462D+00  .202968750000D+03 -.298072613077D+01 -.773389357628D-08
     .557166065346D-09  .100000000000D+01  .232500000000D+04  .000000000000D+00
     .240000000000D+01  .000000000000D+00 -.465661287308D-08  .685000000000D+03
     .273600000000D+06  .400000000000D+01
13 24  7 31  6  0  0.0  .667935237288D-03  .227373675443D-11  .000000000000D+00
     .280000000000D+02 -.198125000000D+02  .423767651624D-08  .301275420736D+00
    -.112690031528D-05  .839224539232D-02  .901147723198D-05  .515365384674D+04
     .280800000000D+06 -.968575477600D-07  .313002740550D+01  .134110450745D-06
     .972245224773D+00  .215062500000D+03  .940122512013D+00 -.781603985515D-08
     .520735976458D-09  .100000000000D+01  .232500000000D+04  .000000000000D+00
     .240000000000D+01  .000000000000D+00 -.111758708954D-07  .280000000000D+02
     .273600000000D+06  .400000000000D+01
